{"type": "FeatureCollection", "features": [ {"type": "Feature", "properties": {"norad_id": 66896, "name": "STARLINK-35791", "group": "last-30-days", "lat": 5.997707623404521, "lon": 55.34813574125296, "alt_km": 323.7545971226464, "timestamp": "2025-12-17T07:00:45.613806+00:00", "meta": {"OBJECT_NAME": "STARLINK-35791", "OBJECT_ID": "2025-283U", "EPOCH": "2025-12-16T22:00:03.000096", "MEAN_MOTION": 15.83575797, "ECCENTRICITY": 5.822e-05, "INCLINATION": 53.1552, "RA_OF_ASC_NODE": 52.7179, "ARG_OF_PERICENTER": 77.6089, "MEAN_ANOMALY": 308.9423, "EPHEMERIS_TYPE": 0, "CLASSIFICATION_TYPE": "U", "NORAD_CAT_ID": 66896, "ELEMENT_SET_NO": 999, "REV_AT_EPOCH": 310, "BSTAR": -0.0074581074, "MEAN_MOTION_DOT": -0.01478369, "MEAN_MOTION_DDOT": 0}, "tle": {"line1": "1 66896U 25283U   25350.91670139 -.01478369  00000+0 -74581-2 0  9992", "line2": "2 66896  53.1552  52.7179 0000582  77.6089 308.9423 15.83575797  3101"}}, "geometry": {"type": "Point", "coordinates": [55.34813574125296, 5.997707623404521]}}, {"type": "Feature", "properties": {"norad_id": 66897, "name": "STARLINK-36079", "group": "last-30-days", "lat": 10.129375583195467, "lon": 58.518049057256185, "alt_km": 323.36415205367575, "timestamp": "2025-12-17T07:00:45.613816+00:00", "meta": {"OBJECT_NAME": "STARLINK-36079", "OBJECT_ID": "2025-283V", "EPOCH": "2025-12-16T22:00:03.000096", "MEAN_MOTION": 15.83512333, "ECCENTRICITY": 8.144e-05, "INCLINATION": 53.1552, "RA_OF_ASC_NODE": 52.7073, "ARG_OF_PERICENTER": 84.574, "MEAN_ANOMALY": 307.2736, "EPHEMERIS_TYPE": 0, "CLASSIFICATION_TYPE": "U", "NORAD_CAT_ID": 66897, "ELEMENT_SET_NO": 999, "REV_AT_EPOCH": 310, "BSTAR": -0.0076253284, "MEAN_MOTION_DOT": -0.01503701, "MEAN_MOTION_DDOT": 0}, "tle": {"line1": "1 66897U 25283V   25350.91670139 -.01503701  00000+0 -76253-2 0  9990", "line2": "2 66897  53.1552  52.7073 0000814  84.5740 307.2736 15.83512333  3100"}}, "geometry": {"type": "Point", "coordinates": [58.518049057256185, 10.129375583195467]}}, {"type": "Feature", "properties": {"norad_id": 66898, "name": "STARLINK-36065", "group": "last-30-days", "lat": 12.257662077784133, "lon": 60.18918279400841, "alt_km": 323.07466633835793, "timestamp": "2025-12-17T07:00:45.613826+00:00", "meta": {"OBJECT_NAME": "STARLINK-36065", "OBJECT_ID": "2025-283W", "EPOCH": "2025-12-16T22:00:03.000096", "MEAN_MOTION": 15.83468293, "ECCENTRICITY": 9.223e-05, "INCLINATION": 53.1548, "RA_OF_ASC_NODE": 52.7009, "ARG_OF_PERICENTER": 79.2696, "MEAN_ANOMALY": 315.329, "EPHEMERIS_TYPE": 0, "CLASSIFICATION_TYPE": "U", "NORAD_CAT_ID": 66898, "ELEMENT_SET_NO": 999, "REV_AT_EPOCH": 310, "BSTAR": -0.0076614083, "MEAN_MOTION_DOT": -0.01507239, "MEAN_MOTION_DDOT": 0}, "tle": {"line1": "1 66898U 25283W   25350.91670139 -.01507239  00000+0 -76614-2 0  9992", "line2": "2 66898  53.1548  52.7009 0000922  79.2696 315.3290 15.83468293  3106"}}, "geometry": {"type": "Point", "coordinates": [60.18918279400841, 12.257662077784133]}}, {"type": "Feature", "properties": {"norad_id": 66899, "name": "STARLINK-36064", "group": "last-30-days", "lat": 14.274775589470163, "lon": 61.806542688384106, "alt_km": 322.7657555980677, "timestamp": "2025-12-17T07:00:45.613836+00:00", "meta": {"OBJECT_NAME": "STARLINK-36064", "OBJECT_ID": "2025-283X", "EPOCH": "2025-12-16T22:00:03.000096", "MEAN_MOTION": 15.83442545, "ECCENTRICITY": 0.00010325, "INCLINATION": 53.1546, "RA_OF_ASC_NODE": 52.6956, "ARG_OF_PERICENTER": 66.043, "MEAN_ANOMALY": 331.1609, "EPHEMERIS_TYPE": 0, "CLASSIFICATION_TYPE": "U", "NORAD_CAT_ID": 66899, "ELEMENT_SET_NO": 999, "REV_AT_EPOCH": 304, "BSTAR": -0.0077650968, "MEAN_MOTION_DOT": -0.0152361, "MEAN_MOTION_DDOT": 0}, "tle": {"line1": "1 66899U 25283X   25350.91670139 -.01523610  00000+0 -77651-2 0  9996", "line2": "2 66899  53.1546  52.6956 0001032  66.0430 331.1609 15.83442545  3043"}}, "geometry": {"type": "Point", "coordinates": [61.806542688384106, 14.274775589470163]}}, {"type": "Feature", "properties": {"norad_id": 66900, "name": "STARLINK-36074", "group": "last-30-days", "lat": 16.35522036716208, "lon": 63.51471466014421, "alt_km": 322.6768448212706, "timestamp": "2025-12-17T07:00:45.613846+00:00", "meta": {"OBJECT_NAME": "STARLINK-36074", "OBJECT_ID": "2025-283Y", "EPOCH": "2025-12-16T22:00:03.000096", "MEAN_MOTION": 15.83406137, "ECCENTRICITY": 9.246e-05, "INCLINATION": 53.1548, "RA_OF_ASC_NODE": 52.6898, "ARG_OF_PERICENTER": 82.8288, "MEAN_ANOMALY": 317.0872, "EPHEMERIS_TYPE": 0, "CLASSIFICATION_TYPE": "U", "NORAD_CAT_ID": 66900, "ELEMENT_SET_NO": 999, "REV_AT_EPOCH": 310, "BSTAR": -0.0078504148, "MEAN_MOTION_DOT": -0.01535883, "MEAN_MOTION_DDOT": 0}, "tle": {"line1": "1 66900U 25283Y   25350.91670139 -.01535883  00000+0 -78504-2 0  9992", "line2": "2 66900  53.1548  52.6898 0000924  82.8288 317.0872 15.83406137  3108"}}, "geometry": {"type": "Point", "coordinates": [63.51471466014421, 16.35522036716208]}}, {"type": "Feature", "properties": {"norad_id": 66901, "name": "STARLINK-36043", "group": "last-30-days", "lat": 18.230428216363784, "lon": 65.09625885778102, "alt_km": 322.3222947495642, "timestamp": "2025-12-17T07:00:45.614084+00:00", "meta": {"OBJECT_NAME": "STARLINK-36043", "OBJECT_ID": "2025-283Z", "EPOCH": "2025-12-16T22:00:03.000096", "MEAN_MOTION": 15.83383946, "ECCENTRICITY": 0.00010456, "INCLINATION": 53.155, "RA_OF_ASC_NODE": 52.6848, "ARG_OF_PERICENTER": 68.7967, "MEAN_ANOMALY": 333.5608, "EPHEMERIS_TYPE": 0, "CLASSIFICATION_TYPE": "U", "NORAD_CAT_ID": 66901, "ELEMENT_SET_NO": 999, "REV_AT_EPOCH": 310, "BSTAR": -0.0078846041, "MEAN_MOTION_DOT": -0.01540407, "MEAN_MOTION_DDOT": 0}, "tle": {"line1": "1 66901U 25283Z   25350.91670139 -.01540407  00000+0 -78846-2 0  9990", "line2": "2 66901  53.1550  52.6848 0001045  68.7967 333.5608 15.83383946  3101"}}, "geometry": {"type": "Point", "coordinates": [65.09625885778102, 18.230428216363784]}}, {"type": "Feature", "properties": {"norad_id": 66902, "name": "STARLINK-35983", "group": "last-30-days", "lat": 20.369580076886333, "lon": 66.95767732630507, "alt_km": 322.2216876314342, "timestamp": "2025-12-17T07:00:45.614097+00:00", "meta": {"OBJECT_NAME": "STARLINK-35983", "OBJECT_ID": "2025-283AA", "EPOCH": "2025-12-16T22:00:03.000096", "MEAN_MOTION": 15.83332964, "ECCENTRICITY": 8.022e-05, "INCLINATION": 53.1548, "RA_OF_ASC_NODE": 52.6792, "ARG_OF_PERICENTER": 77.627, "MEAN_ANOMALY": 327.5677, "EPHEMERIS_TYPE": 0, "CLASSIFICATION_TYPE": "U", "NORAD_CAT_ID": 66902, "ELEMENT_SET_NO": 999, "REV_AT_EPOCH": 310, "BSTAR": -0.0079176564, "MEAN_MOTION_DOT": -0.01542589, "MEAN_MOTION_DDOT": 0}, "tle": {"line1": "1 66902U 25283AA  25350.91670139 -.01542589  00000+0 -79177-2 0  9992", "line2": "2 66902  53.1548  52.6792 0000802  77.6270 327.5677 15.83332964  3106"}}, "geometry": {"type": "Point", "coordinates": [66.95767732630507, 20.369580076886333]}}, {"type": "Feature", "properties": {"norad_id": 66903, "name": "STARLINK-36077", "group": "last-30-days", "lat": 22.18095704302097, "lon": 68.58829900784544, "alt_km": 321.90755007990083, "timestamp": "2025-12-17T07:00:45.614107+00:00", "meta": {"OBJECT_NAME": "STARLINK-36077", "OBJECT_ID": "2025-283AB", "EPOCH": "2025-12-16T22:00:03.000096", "MEAN_MOTION": 15.83319367, "ECCENTRICITY": 0.0001019, "INCLINATION": 53.1551, "RA_OF_ASC_NODE": 52.6741, "ARG_OF_PERICENTER": 71.7034, "MEAN_ANOMALY": 335.8868, "EPHEMERIS_TYPE": 0, "CLASSIFICATION_TYPE": "U", "NORAD_CAT_ID": 66903, "ELEMENT_SET_NO": 999, "REV_AT_EPOCH": 310, "BSTAR": -0.0080180357, "MEAN_MOTION_DOT": -0.01558998, "MEAN_MOTION_DDOT": 0}, "tle": {"line1": "1 66903U 25283AB  25350.91670139 -.01558998  00000+0 -80180-2 0  9990", "line2": "2 66903  53.1551  52.6741 0001019  71.7034 335.8868 15.83319367  3105"}}, "geometry": {"type": "Point", "coordinates": [68.58829900784544, 22.18095704302097]}}, {"type": "Feature", "properties": {"norad_id": 66904, "name": "STARLINK-36059", "group": "last-30-days", "lat": 24.044543558220923, "lon": 70.32736182065216, "alt_km": 321.759520808705, "timestamp": "2025-12-17T07:00:45.614118+00:00", "meta": {"OBJECT_NAME": "STARLINK-36059", "OBJECT_ID": "2025-283AC", "EPOCH": "2025-12-16T22:00:03.000096", "MEAN_MOTION": 15.83290772, "ECCENTRICITY": 8.422e-05, "INCLINATION": 53.1547, "RA_OF_ASC_NODE": 52.6687, "ARG_OF_PERICENTER": 80.8695, "MEAN_ANOMALY": 329.2137, "EPHEMERIS_TYPE": 0, "CLASSIFICATION_TYPE": "U", "NORAD_CAT_ID": 66904, "ELEMENT_SET_NO": 999, "REV_AT_EPOCH": 310, "BSTAR": -0.0080210016, "MEAN_MOTION_DOT": -0.01557503, "MEAN_MOTION_DDOT": 0}, "tle": {"line1": "1 66904U 25283AC  25350.91670139 -.01557503  00000+0 -80210-2 0  9996", "line2": "2 66904  53.1547  52.6687 0000842  80.8695 329.2137 15.83290772  3101"}}, "geometry": {"type": "Point", "coordinates": [70.32736182065216, 24.044543558220923]}}, {"type": "Feature", "properties": {"norad_id": 66905, "name": "STARLINK-36075", "group": "last-30-days", "lat": 25.719826109693145, "lon": 71.95121193166105, "alt_km": 321.5105165491441, "timestamp": "2025-12-17T07:00:45.614128+00:00", "meta": {"OBJECT_NAME": "STARLINK-36075", "OBJECT_ID": "2025-283AD", "EPOCH": "2025-12-16T22:00:03.000096", "MEAN_MOTION": 15.83285934, "ECCENTRICITY": 7.981e-05, "INCLINATION": 53.1549, "RA_OF_ASC_NODE": 52.6642, "ARG_OF_PERICENTER": 78.5324, "MEAN_ANOMALY": 333.793, "EPHEMERIS_TYPE": 0, "CLASSIFICATION_TYPE": "U", "NORAD_CAT_ID": 66905, "ELEMENT_SET_NO": 999, "REV_AT_EPOCH": 310, "BSTAR": -0.0080723562, "MEAN_MOTION_DOT": -0.01565885, "MEAN_MOTION_DDOT": 0}, "tle": {"line1": "1 66905U 25283AD  25350.91670139 -.01565885  00000+0 -80724-2 0  9999", "line2": "2 66905  53.1549  52.6642 0000798  78.5324 333.7930 15.83285934  3103"}}, "geometry": {"type": "Point", "coordinates": [71.95121193166105, 25.719826109693145]}}]}